{
  "type": "FeatureCollection",
  "features": [
    {
      "type": "Feature",
      "properties": {
        "norad_id": 35982,
        "name": "COSMOS 2251 DEB",
        "group": "cosmos-2251-debris",
        "lat": 9.691007537295823,
        "lon": 179.7562114586915,
        "alt_km": 692.1365450353305,
        "timestamp": "2025-12-04T13:52:00.838645+00:00",
        "meta_object_name": "COSMOS 2251 DEB",
        "meta_object_id": "1993-036AVY",
        "meta_epoch": "2025-12-03T19:02:35.342304",
        "meta_mean_motion": 14.6267509,
        "meta_eccentricity": 0.0064053,
        "meta_inclination": 74.0591,
        "meta_ra_of_asc_node": 4.0543,
        "meta_arg_of_pericenter": 73.1235,
        "meta_mean_anomaly": 287.6943,
        "meta_ephemeris_type": 0,
        "meta_classification_type": "U",
        "meta_norad_cat_id": 35982,
        "meta_element_set_no": 999,
        "meta_rev_at_epoch": 86035,
        "meta_bstar": 0.00091326,
        "meta_mean_motion_dot": 4.759e-05,
        "meta_mean_motion_ddot": 0,
        "tle_line1": "1 35982U 93036AVY 25337.79346461  .00004759  00000+0  91326-3 0  9996",
        "tle_line2": "2 35982  74.0591   4.0543 0064053  73.1235 287.6943 14.62675090860351"
      },
      "geometry": {
        "type": "Point",
        "coordinates": [
          179.7562114586915,
          9.691007537295823
        ]
      }
    },
    {
      "type": "Feature",
      "properties": {
        "norad_id": 35987,
        "name": "COSMOS 2251 DEB",
        "group": "cosmos-2251-debris",
        "lat": 16.868998946154708,
        "lon": -13.170655388747914,
        "alt_km": 750.0166810814462,
        "timestamp": "2025-12-04T13:52:00.838665+00:00",
        "meta_object_name": "COSMOS 2251 DEB",
        "meta_object_id": "1993-036AWD",
        "meta_epoch": "2025-12-01T10:54:45.006048",
        "meta_mean_motion": 14.43015331,
        "meta_eccentricity": 0.00459843,
        "meta_inclination": 73.9994,
        "meta_ra_of_asc_node": 347.6475,
        "meta_arg_of_pericenter": 116.8368,
        "meta_mean_anomaly": 243.7501,
        "meta_ephemeris_type": 0,
        "meta_classification_type": "U",
        "meta_norad_cat_id": 35987,
        "meta_element_set_no": 999,
        "meta_rev_at_epoch": 60902,
        "meta_bstar": 0.00096989757,
        "meta_mean_motion_dot": 3.265e-05,
        "meta_mean_motion_ddot": 0,
        "tle_line1": "1 35987U 93036AWD 25335.45468757  .00003265  00000+0  96990-3 0  9998",
        "tle_line2": "2 35987  73.9994 347.6475 0045984 116.8368 243.7501 14.43015331609028"
      },
      "geometry": {
        "type": "Point",
        "coordinates": [
          -13.170655388747914,
          16.868998946154708
        ]
      }
    },
    {
      "type": "Feature",
      "properties": {
        "norad_id": 35989,
        "name": "COSMOS 2251 DEB",
        "group": "cosmos-2251-debris",
        "lat": -55.56530206858736,
        "lon": 143.52217621736438,
        "alt_km": 787.225953319291,
        "timestamp": "2025-12-04T13:52:00.838682+00:00",
        "meta_object_name": "COSMOS 2251 DEB",
        "meta_object_id": "1993-036AWF",
        "meta_epoch": "2025-11-27T07:00:06.233184",
        "meta_mean_motion": 14.37066498,
        "meta_eccentricity": 0.00214096,
        "meta_inclination": 74.0374,
        "meta_ra_of_asc_node": 312.2392,
        "meta_arg_of_pericenter": 38.1471,
        "meta_mean_anomaly": 322.1192,
        "meta_ephemeris_type": 0,
        "meta_classification_type": "U",
        "meta_norad_cat_id": 35989,
        "meta_element_set_no": 999,
        "meta_rev_at_epoch": 86957,
        "meta_bstar": 0.00024367588,
        "meta_mean_motion_dot": 6.99e-06,
        "meta_mean_motion_ddot": 0,
        "tle_line1": "1 35989U 93036AWF 25331.29173881  .00000699  00000+0  24368-3 0  9997",
        "tle_line2": "2 35989  74.0374 312.2392 0021409  38.1471 322.1192 14.37066498869576"
      },
      "geometry": {
        "type": "Point",
        "coordinates": [
          143.52217621736438,
          -55.56530206858736
        ]
      }
    },
    {
      "type": "Feature",
      "properties": {
        "norad_id": 35993,
        "name": "COSMOS 2251 DEB",
        "group": "cosmos-2251-debris",
        "lat": 10.40320830661191,
        "lon": -8.457695187748614,
        "alt_km": 698.0038805236136,
        "timestamp": "2025-12-04T13:52:00.838699+00:00",
        "meta_object_name": "COSMOS 2251 DEB",
        "meta_object_id": "1993-036AWK",
        "meta_epoch": "2025-12-04T07:15:45.477216",
        "meta_mean_motion": 14.6520036,
        "meta_eccentricity": 0.00293886,
        "meta_inclination": 74.0149,
        "meta_ra_of_asc_node": 349.0555,
        "meta_arg_of_pericenter": 181.1599,
        "meta_mean_anomaly": 178.9507,
        "meta_ephemeris_type": 0,
        "meta_classification_type": "U",
        "meta_norad_cat_id": 35993,
        "meta_element_set_no": 999,
        "meta_rev_at_epoch": 60319,
        "meta_bstar": 0.0015487336,
        "meta_mean_motion_dot": 8.369e-05,
        "meta_mean_motion_ddot": 0,
        "tle_line1": "1 35993U 93036AWK 25338.30260969  .00008369  00000+0  15487-2 0  9998",
        "tle_line2": "2 35993  74.0149 349.0555 0029388 181.1599 178.9507 14.65200360603194"
      },
      "geometry": {
        "type": "Point",
        "coordinates": [
          -8.457695187748614,
          10.40320830661191
        ]
      }
    },
    {
      "type": "Feature",
      "properties": {
        "norad_id": 35996,
        "name": "COSMOS 2251 DEB",
        "group": "cosmos-2251-debris",
        "lat": -67.21487400515407,
        "lon": -16.69291400103131,
        "alt_km": 499.5747756720493,
        "timestamp": "2025-12-04T13:52:00.838716+00:00",
        "meta_object_name": "COSMOS 2251 DEB",
        "meta_object_id": "1993-036AWN",
        "meta_epoch": "2025-12-02T16:11:16.473408",
        "meta_mean_motion": 15.08726823,
        "meta_eccentricity": 0.00894127,
        "meta_inclination": 74.0129,
        "meta_ra_of_asc_node": 124.191,
        "meta_arg_of_pericenter": 217.4013,
        "meta_mean_anomaly": 142.0936,
        "meta_ephemeris_type": 0,
        "meta_classification_type": "U",
        "meta_norad_cat_id": 35996,
        "meta_element_set_no": 999,
        "meta_rev_at_epoch": 72174,
        "meta_bstar": 0.0010208525,
        "meta_mean_motion_dot": 0.00017591,
        "meta_mean_motion_ddot": 0,
        "tle_line1": "1 35996U 93036AWN 25336.67449622  .00017591  00000+0  10209-2 0  9998",
        "tle_line2": "2 35996  74.0129 124.1910 0089412 217.4013 142.0936 15.08726823721745"
      },
      "geometry": {
        "type": "Point",
        "coordinates": [
          -16.69291400103131,
          -67.21487400515407
        ]
      }
    },
    {
      "type": "Feature",
      "properties": {
        "norad_id": 35997,
        "name": "COSMOS 2251 DEB",
        "group": "cosmos-2251-debris",
        "lat": -54.11627804008929,
        "lon": 45.94055733854459,
        "alt_km": 719.6851794600998,
        "timestamp": "2025-12-04T13:52:00.838732+00:00",
        "meta_object_name": "COSMOS 2251 DEB",
        "meta_object_id": "1993-036AWP",
        "meta_epoch": "2025-12-02T07:50:00.553056",
        "meta_mean_motion": 14.51236016,
        "meta_eccentricity": 0.00159085,
        "meta_inclination": 74.0439,
        "meta_ra_of_asc_node": 206.8774,
        "meta_arg_of_pericenter": 283.0639,
        "meta_mean_anomaly": 76.8746,
        "meta_ephemeris_type": 0,
        "meta_classification_type": "U",
        "meta_norad_cat_id": 35997,
        "meta_element_set_no": 999,
        "meta_rev_at_epoch": 70733,
        "meta_bstar": 0.00076938672,
        "meta_mean_motion_dot": 3.037e-05,
        "meta_mean_motion_ddot": 0,
        "tle_line1": "1 35997U 93036AWP 25336.32639529  .00003037  00000+0  76939-3 0  9991",
        "tle_line2": "2 35997  74.0439 206.8774 0015908 283.0639  76.8746 14.51236016707337"
      },
      "geometry": {
        "type": "Point",
        "coordinates": [
          45.94055733854459,
          -54.11627804008929
        ]
      }
    },
    {
      "type": "Feature",
      "properties": {
        "norad_id": 36005,
        "name": "COSMOS 2251 DEB",
        "group": "cosmos-2251-debris",
        "lat": 23.88475908052888,
        "lon": 116.56408462285285,
        "alt_km": 765.5588833326265,
        "timestamp": "2025-12-04T13:52:00.838752+00:00",
        "meta_object_name": "COSMOS 2251 DEB",
        "meta_object_id": "1993-036AWX",
        "meta_epoch": "2025-12-03T02:54:52.272576",
        "meta_mean_motion": 14.47331723,
        "meta_eccentricity": 0.00621511,
        "meta_inclination": 74.026,
        "meta_ra_of_asc_node": 112.0007,
        "meta_arg_of_pericenter": 251.2803,
        "meta_mean_anomaly": 108.1604,
        "meta_ephemeris_type": 0,
        "meta_classification_type": "U",
        "meta_norad_cat_id": 36005,
        "meta_element_set_no": 999,
        "meta_rev_at_epoch": 87445,
        "meta_bstar": 0.00029551015,
        "meta_mean_motion_dot": 1.08e-05,
        "meta_mean_motion_ddot": 0,
        "tle_line1": "1 36005U 93036AWX 25337.12143834  .00001080  00000+0  29551-3 0  9994",
        "tle_line2": "2 36005  74.0260 112.0007 0062151 251.2803 108.1604 14.47331723874455"
      },
      "geometry": {
        "type": "Point",
        "coordinates": [
          116.56408462285285,
          23.88475908052888
        ]
      }
    }
  ]
}